[Satellite]
VERSION=1.1
NAME=INTELSAT 14 (IS-14)
NICKNAME=INTELSAT 14 (IS-14)
TLE1=1 36097U 09064A   17185.34026390 -.00000279  00000-0  00000-0 0  9992
TLE2=2 36097   0.0273 296.8665 0002528 162.1716 260.9822  1.00273478 27923
